[{"OBJECT_NAME":"GHGSAT-C3","OBJECT_ID":"2022-057F","EPOCH":"2026-03-09T22:30:13.234752","MEAN_MOTION":15.32943835,"ECCENTRICITY":0.00073198,"INCLINATION":97.6431,"RA_OF_ASC_NODE":211.0668,"ARG_OF_PERICENTER":112.4588,"MEAN_ANOMALY":247.7429,"EPHEMERIS_TYPE":0,"CLASSIFICATION_TYPE":"U","NORAD_CAT_ID":52737,"ELEMENT_SET_NO":999,"REV_AT_EPOCH":21032,"BSTAR":0.00031249517,"MEAN_MOTION_DOT":9.871e-5,"MEAN_MOTION_DDOT":0},{"OBJECT_NAME":"STARLINK-35659","OBJECT_ID":"2025-257F","EPOCH":"2026-03-09T16:13:10.363296","MEAN_MOTION":15.30231809,"ECCENTRICITY":0.00012946,"INCLINATION":53.1599,"RA_OF_ASC_NODE":216.9291,"ARG_OF_PERICENTER":81.9957,"MEAN_ANOMALY":278.1191,"EPHEMERIS_TYPE":0,"CLASSIFICATION_TYPE":"U","NORAD_CAT_ID":66385,"ELEMENT_SET_NO":999,"REV_AT_EPOCH":1973,"BSTAR":0.00063513382,"MEAN_MOTION_DOT":0.00018517,"MEAN_MOTION_DDOT":0}]
